CCSDS_OMM_VERS,COMMENT,CREATION_DATE,ORIGINATOR,OBJECT_NAME,OBJECT_ID,CENTER_NAME,REF_FRAME,TIME_SYSTEM,MEAN_ELEMENT_THEORY,EPOCH,MEAN_MOTION,ECCENTRICITY,INCLINATION,RA_OF_ASC_NODE,ARG_OF_PERICENTER,MEAN_ANOMALY,EPHEMERIS_TYPE,CLASSIFICATION_TYPE,NORAD_CAT_ID,ELEMENT_SET_NO,REV_AT_EPOCH,BSTAR,MEAN_MOTION_DOT,MEAN_MOTION_DDOT,SEMIMAJOR_AXIS,PERIOD,APOAPSIS,PERIAPSIS,OBJECT_TYPE,RCS_SIZE,COUNTRY_CODE,LAUNCH_DATE,SITE,DECAY_DATE,FILE,GP_ID,TLE_LINE0,TLE_LINE1,TLE_LINE2
"2.0","GENERATED VIA SPACE-TRACK.ORG API","2020-10-03T18:08:34","18 SPCS","COSMOS 2498","2014-028C","EARTH","TEME","UTC","SGP4","2020-10-03T12:09:18.111168","12.42888730","0.00192910","82.4505","333.4088","290.8617","69.0409","0","U","39763","999","28886","0.00004719200000","0.00000016","0.0000000000000","7872.518","115.859","1509.570","1479.196","PAYLOAD","LARGE","CIS","2014-05-23","PKMTR","","2841306","162683360","0 COSMOS 2498","1 39763U 14028C   20277.50645962 +.00000016 +00000-0 +47192-4 0  9992","2 39763 082.4505 333.4088 0019291 290.8617 069.0409 12.42888730288861"
"2.0","GENERATED VIA SPACE-TRACK.ORG API","2020-10-03T18:08:34","18 SPCS","COSMOS 1732","1986-015A","EARTH","TEME","UTC","SGP4","2020-10-03T06:41:28.497984","12.40986496","0.00262940","73.6107","216.6429","169.5053","190.6544","0","U","16593","999","56941","-0.00002523500000","-0.00000021","0.0000000000000","7880.561","116.036","1523.147","1481.704","PAYLOAD","LARGE","CIS","1986-02-11","PKMTR","","2841306","162670488","0 COSMOS 1732","1 16593U 86015A   20277.27880206 -.00000021 +00000-0 -25235-4 0  9991","2 16593 073.6107 216.6429 0026294 169.5053 190.6544 12.40986496569415"
"2.0","GENERATED VIA SPACE-TRACK.ORG API","2020-10-03T04:36:52","18 SPCS","COSMOS 1732","1986-015A","EARTH","TEME","UTC","SGP4","2020-10-02T21:01:06.264480","12.40986485","0.00263010","73.6107","217.1830","170.0926","190.0642","0","U","16593","999","56936","-0.00008619100000","-0.00000029","0.0000000000000","7880.561","116.036","1523.152","1481.699","PAYLOAD","LARGE","CIS","1986-02-11","PKMTR","","2840435","162630603","0 COSMOS 1732","1 16593U 86015A   20276.87576695 -.00000029 +00000-0 -86191-4 0  9996","2 16593 073.6107 217.1830 0026301 170.0926 190.0642 12.40986485569367"
"2.0","GENERATED VIA SPACE-TRACK.ORG API","2020-10-03T04:36:52","18 SPCS","COSMOS 2498","2014-028C","EARTH","TEME","UTC","SGP4","2020-10-02T16:50:08.827584","12.42888616","0.00193070","82.4505","333.9127","292.7608","67.1432","0","U","39763","999","28876","-0.00002214100000","0.00000007","0.0000000000000","7872.518","115.859","1509.583","1479.184","PAYLOAD","LARGE","CIS","2014-05-23","PKMTR","","2840435","162642443","0 COSMOS 2498","1 39763U 14028C   20276.70149106 +.00000007 +00000-0 -22141-4 0  9990","2 39763 082.4505 333.9127 0019307 292.7608 067.1432 12.42888616288766"
"2.0","GENERATED VIA SPACE-TRACK.ORG API","2020-10-02T16:51:42","18 SPCS","COSMOS 2498","2014-028C","EARTH","TEME","UTC","SGP4","2020-10-02T11:02:24.037152","12.42888619","0.00193510","82.4505","334.0638","293.3629","66.5412","0","U","39763","999","28873","-0.00002112200000","0.00000007","0.0000000000000","7872.518","115.859","1509.617","1479.149","PAYLOAD","LARGE","CIS","2014-05-23","PKMTR","","2840178","162615685","0 COSMOS 2498","1 39763U 14028C   20276.46000043 +.00000007 +00000-0 -21122-4 0  9997","2 39763 082.4505 334.0638 0019351 293.3629 066.5412 12.42888619288735"
"2.0","GENERATED VIA SPACE-TRACK.ORG API","2020-10-02T16:51:42","18 SPCS","COSMOS 1732","1986-015A","EARTH","TEME","UTC","SGP4","2020-10-02T07:28:35.137920","12.40986487","0.00263120","73.6106","217.9390","170.9190","189.2335","0","U","16593","999","56929","-0.00009320600000","-0.00000030","0.0000000000000","7880.561","116.036","1523.161","1481.690","PAYLOAD","LARGE","CIS","1986-02-11","PKMTR","","2840178","162605631","0 COSMOS 1732","1 16593U 86015A   20276.31151780 -.00000030 +00000-0 -93206-4 0  9996","2 16593 073.6106 217.9390 0026312 170.9190 189.2335 12.40986487569292"
"2.0","GENERATED VIA SPACE-TRACK.ORG API","2020-10-02T06:36:11","18 SPCS","COSMOS 2498","2014-028C","EARTH","TEME","UTC","SGP4","2020-10-02T03:18:44.337888","12.42888640","0.00193560","82.4502","334.2654","294.1427","65.7636","0","U","39763","999","28869","-0.00002117700000","0.00000007","0.0000000000000","7872.518","115.859","1509.621","1479.145","PAYLOAD","LARGE","CIS","2014-05-23","PKMTR","","2839841","162595308","0 COSMOS 2498","1 39763U 14028C   20276.13801317  .00000007  00000-0 -21177-4 0  9994","2 39763  82.4502 334.2654 0019356 294.1427  65.7636 12.42888640288690"
"2.0","GENERATED VIA SPACE-TRACK.ORG API","2020-10-02T02:09:23","18 SPCS","COSMOS 1732","1986-015A","EARTH","TEME","UTC","SGP4","2020-10-01T21:48:12.904416","12.40986486","0.00263220","73.6105","218.4791","171.5068","188.6427","0","U","16593","999","56924","-0.00012182000000","-0.00000034","0.0000000000000","7880.561","116.036","1523.169","1481.682","PAYLOAD","LARGE","CIS","1986-02-11","PKMTR","","2839626","162573626","0 COSMOS 1732","1 16593U 86015A   20275.90848269 -.00000034 +00000-0 -12182-3 0  9992","2 16593 073.6105 218.4791 0026322 171.5068 188.6427 12.40986486569243"
"2.0","GENERATED VIA SPACE-TRACK.ORG API","2020-10-01T22:16:09","18 SPCS","COSMOS 1732","1986-015A","EARTH","TEME","UTC","SGP4","2020-10-01T19:52:08.457888","12.40986491","0.00263240","73.6105","218.5871","171.6272","188.5216","0","U","16593","999","56948","-0.00011507000000","-0.00000033","0.0000000000000","7880.561","116.036","1523.170","1481.681","PAYLOAD","LARGE","CIS","1986-02-11","PKMTR","","2839458","162565855","0 COSMOS 1732","1 16593U 86015A   20275.82787567 -.00000033  00000-0 -11507-3 0  9995","2 16593  73.6105 218.5871 0026324 171.6272 188.5216 12.40986491569480"
"2.0","GENERATED VIA SPACE-TRACK.ORG API","2020-10-02T02:09:23","18 SPCS","COSMOS 2498","2014-028C","EARTH","TEME","UTC","SGP4","2020-10-01T17:39:09.696096","12.42888651","0.00193690","82.4501","334.5174","295.1920","64.7150","0","U","39763","999","28864","-0.00000160230000","0.00000009","0.0000000000000","7872.518","115.859","1509.631","1479.135","PAYLOAD","LARGE","CIS","2014-05-23","PKMTR","","2839626","162582444","0 COSMOS 2498","1 39763U 14028C   20275.73552889 +.00000009 +00000-0 -16023-5 0  9993","2 39763 082.4501 334.5174 0019369 295.1920 064.7150 12.42888651288649"
"2.0","GENERATED VIA SPACE-TRACK.ORG API","2020-10-01T17:48:54","18 SPCS","COSMOS 1732","1986-015A","EARTH","TEME","UTC","SGP4","2020-10-01T14:03:55.117440","12.40986490","0.00263260","73.6105","218.9111","171.9832","188.1637","0","U","16593","999","56920","-0.00011918000000","-0.00000033","0.0000000000000","7880.561","116.036","1523.172","1481.679","PAYLOAD","LARGE","CIS","1986-02-11","PKMTR","","2839403","162548952","0 COSMOS 1732","1 16593U 86015A   20275.58605460 -.00000033 +00000-0 -11918-3 0  9995","2 16593 073.6105 218.9111 0026326 171.9832 188.1637 12.40986490569200"
"2.0","GENERATED VIA SPACE-TRACK.ORG API","2020-10-01T17:48:54","18 SPCS","COSMOS 2498","2014-028C","EARTH","TEME","UTC","SGP4","2020-10-01T11:51:24.911712","12.42888652","0.00193690","82.4501","334.6686","295.7178","64.1901","0","U","39763","999","28861","-0.00000160230000","0.00000009","0.0000000000000","7872.518","115.859","1509.631","1479.135","PAYLOAD","LARGE","CIS","2014-05-23","PKMTR","","2839403","162558888","0 COSMOS 2498","1 39763U 14028C   20275.49403833 +.00000009 +00000-0 -16023-5 0  9990","2 39763 082.4501 334.6686 0019369 295.7178 064.1901 12.42888652288615"
"2.0","GENERATED VIA SPACE-TRACK.ORG API","2020-10-01T01:40:27","18 SPCS","COSMOS 1732","1986-015A","EARTH","TEME","UTC","SGP4","2020-09-30T20:39:15.097824","12.40986524","0.00263410","73.6103","219.8832","173.0354","187.1061","0","U","16593","999","56911","-0.00013506000000","-0.00000036","0.0000000000000","7880.560","116.036","1523.184","1481.667","PAYLOAD","LARGE","CIS","1986-02-11","PKMTR","","2838446","162503848","0 COSMOS 1732","1 16593U 86015A   20274.86059141 -.00000036 +00000-0 -13506-3 0  9992","2 16593 073.6103 219.8832 0026341 173.0354 187.1061 12.40986524569115"
"2.0","GENERATED VIA SPACE-TRACK.ORG API","2020-10-01T01:46:10","18 SPCS","COSMOS 2498","2014-028C","EARTH","TEME","UTC","SGP4","2020-09-30T18:28:10.571520","12.42888650","0.00193900","82.4503","335.1223","297.3680","62.5428","0","U","39763","999","28852","0.00000533980000","0.00000010","0.0000000000000","7872.518","115.859","1509.648","1479.118","PAYLOAD","LARGE","CIS","2014-05-23","PKMTR","","2838546","162525102","0 COSMOS 2498","1 39763U 14028C   20274.76956680  .00000010  00000-0  53398-5 0  9999","2 39763  82.4503 335.1223 0019390 297.3680  62.5428 12.42888650288524"
"2.0","GENERATED VIA SPACE-TRACK.ORG API","2020-10-01T01:40:27","18 SPCS","COSMOS 2498","2014-028C","EARTH","TEME","UTC","SGP4","2020-09-30T18:28:10.571520","12.42888650","0.00193900","82.4503","335.1223","297.3680","62.5428","0","U","39763","999","28852","0.00000533980000","0.00000010","0.0000000000000","7872.518","115.859","1509.648","1479.118","PAYLOAD","LARGE","CIS","2014-05-23","PKMTR","","2838446","162515127","0 COSMOS 2498","1 39763U 14028C   20274.76956680 +.00000010 +00000-0 +53398-5 0  9999","2 39763 082.4503 335.1223 0019390 297.3680 062.5428 12.42888650288524"
"2.0","GENERATED VIA SPACE-TRACK.ORG API","2020-09-30T19:42:07","18 SPCS","COSMOS 2498","2014-028C","EARTH","TEME","UTC","SGP4","2020-09-30T12:40:25.808736","12.42888651","0.00194130","82.4502","335.2734","297.9382","61.9742","0","U","39763","999","28849","0.00001015000000","0.00000011","0.0000000000000","7872.518","115.859","1509.666","1479.100","PAYLOAD","LARGE","CIS","2014-05-23","PKMTR","","2838070","162487611","0 COSMOS 2498","1 39763U 14028C   20274.52807649 +.00000011 +00000-0 +10150-4 0  9992","2 39763 082.4502 335.2734 0019413 297.9382 061.9742 12.42888651288491"
